INTELSAT 902 (IS-902)   
1 26900U 01039A   26162.68450689 -.00000270  00000+0  00000+0 0  9991
2 26900   6.1041  71.8507 0004513   4.8045  19.6883  1.00271994 90640
INTELSAT 904 (IS-904)   
1 27380U 02007A   26162.43088535 -.00000213  00000+0  00000+0 0  9997
2 27380   6.9050  69.2520 0006582   2.4614 311.6923  1.00272051 51700
DIRECTV 5 (TEMPO 1)     
1 27426U 02023A   26162.67272017 -.00000043  00000+0  00000+0 0  9993
2 27426   4.8630  75.3774 0003246  17.7404 298.9727  1.00271407 88063
INTELSAT 905 (IS-905)   
1 27438U 02027A   26162.51202027  .00000107  00000+0  00000+0 0  9997
2 27438   6.7387  69.8665 0003856  17.4003 219.6999  1.00271458 51306
GALAXY 3C (G-3C)        
1 27445U 02030A   26162.88953141 -.00000138  00000+0  00000+0 0  9994
2 27445   3.7168  78.0463 0001621  34.5060  13.0584  1.00271077 46449
INTELSAT 906 (IS-906)   
1 27513U 02041A   26162.77846378  .00000026  00000+0  00000+0 0  9998
2 27513   5.7896  72.9885 0004667   1.3969 170.1094  1.00271853 86974
GALAXY 13 (HORIZONS-1)  
1 27954U 03044A   26162.73602323  .00000148  00000+0  00000+0 0  9992
2 27954   1.4059  83.9280 0002124 354.7939 296.3409  1.00274779 46513
INTELSAT 10-02          
1 28358U 04022A   26162.69430027  .00000005  00000+0  00000+0 0  9995
2 28358   0.0129 326.6782 0000243 212.8182 329.4806  1.00271147 80505
DIRECTV 8               
1 28659U 05019A   26162.74217660  .00000018  00000+0  00000+0 0  9992
2 28659   0.0173  55.3332 0002826  28.2346 324.6491  1.00270639 77019
GALAXY 28 (G-28)        
1 28702U 05022A   26162.83172652 -.00000185  00000+0  00000+0 0  9992
2 28702   3.2855  78.9985 0002866 358.7888  94.7051  1.00271751 51926
GALAXY 16 (G-16)        
1 29236U 06023A   26162.88875141 -.00000110  00000+0  00000+0 0  9993
2 29236   0.0460 150.4135 0002437 296.0236  34.7433  1.00270810 72920
DIRECTV 9S              
1 29494U 06043A   26162.88831807 -.00000098  00000+0  00000+0 0  9997
2 29494   2.4064  80.9636 0004892   9.6814  28.1898  1.00270960 51332
GALAXY 17 (G-17)        
1 31307U 07016B   26162.89152475 -.00000191  00000+0  00000+0 0  9996
2 31307   2.9581  79.9647 0004768  19.6846  36.5340  1.00270335 69751
INTELSAT 11 (IS-11)     
1 32253U 07044B   26162.72414985 -.00000268  00000+0  00000+0 0  9992
2 32253   3.5505  78.7337 0002078  88.6775 143.2035  0.99053000 68398
HORIZONS-2              
1 32388U 07063B   26162.89377809 -.00000238  00000+0  00000+0 0  9990
2 32388   2.5878  80.6878 0003799 358.5337  68.9985  1.00270283 67769
DIRECTV 11              
1 32729U 08013A   26162.60358061 -.00000109  00000+0  00000+0 0  9990
2 32729   0.0126 263.3490 0000365  89.6842  25.0254  1.00270690 45532
GALAXY 18 (G-18)        
1 32951U 08024A   26162.88387714  .00000042  00000+0  00000+0 0  9991
2 32951   0.0006  42.1597 0002634  36.4949  16.7603  1.00270675 45804
INTELSAT 25 (IS-25)     
1 33153U 08034A   26162.93701407 -.00000269  00000+0  00000+0 0  9994
2 33153   2.6955  80.4310 0003046  56.1680 246.0079  0.99037270 65634
GALAXY 19 (G-19)        
1 33376U 08045A   26162.67523352 -.00000122  00000+0  00000+0 0  9993
2 33376   0.0161 301.8034 0002580 139.9841 324.3216  1.00270649 64843
FM-5                    
1 35493U 09034A   26162.89126475 -.00000184  00000+0  00000+0 0  9991
2 35493   0.0158 297.9949 0000763   0.6841 196.2587  1.00270980 46593
INTELSAT 14 (IS-14)     
1 36097U 09064A   26162.96904781 -.00000257  00000+0  00000+0 0  9998
2 36097   0.0157   7.2116 0002228  65.4335 131.5354  1.00271894 60557
INTELSAT 15 (IS-15)     
1 36106U 09067A   26162.92522736 -.00000169  00000+0  00000+0 0  9996
2 36106   0.0101  20.9791 0002102  63.3508 234.1673  1.00271426 41170
DIRECTV 12              
1 36131U 09075A   26162.88797140 -.00000087  00000+0  00000+0 0  9990
2 36131   0.0121 100.1334 0000402 280.7312  96.3074  1.00269834 46508
INTELSAT 16 (IS-16)     
1 36397U 10006A   26162.89325809 -.00000228  00000+0  00000+0 0  9997
2 36397   0.0098 324.4405 0001888 133.3612  47.8103  1.00271325 59607
XM-5                    
1 37185U 10053A   26162.60037394 -.00000006  00000+0  00000+0 0  9997
2 37185   0.0626 274.0505 0002924 282.8150 164.0155  1.00272357 57423
INTELSAT 17 (IS-17)     
1 37238U 10065B   26162.92141400  .00000015  00000+0  00000+0 0  9997
2 37238   0.0036  76.5813 0002567  11.1029 210.2805  1.00270786 53195
INTELSAT 28 (IS-28)     
1 37392U 11016A   26162.90204631 -.00000209  00000+0  00000+0 0  9995
2 37392   1.7919  82.6826 0003657   3.2365 107.3551  1.00271126 53230
INTELSAT 18 (IS-18)     
1 37834U 11056A   26162.87269709  .00000069  00000+0  00000+0 0  9996
2 37834   0.0254 282.0668 0002253 174.5215 297.8051  1.00271603 53759
INTELSAT 22 (IS-22)     
1 38098U 12011A   26162.92262735  .00000000  00000+0  00000+0 0  9994
2 38098   0.0323  41.6451 0001513  51.3576 211.4793  1.00271059  7139
INTELSAT 19 (IS-19)     
1 38356U 12030A   26162.63169925 -.00000040  00000+0  00000+0 0  9992
2 38356   0.0179 344.0714 0002925 104.5654 204.7579  1.00271818 50399
INTELSAT 20 (IS-20)     
1 38740U 12043A   26162.92193400 -.00000009  00000+0  00000+0 0  9995
2 38740   0.0066  73.2721 0001965  99.6770 127.7306  1.00274417 50699
